[{"OBJECT_NAME":"YAOGAN-42 01","OBJECT_ID":"2024-063A","EPOCH":"2026-03-09T23:33:22.802688","MEAN_MOTION":15.23115119,"ECCENTRICITY":0.00025743,"INCLINATION":34.9985,"RA_OF_ASC_NODE":29.746,"ARG_OF_PERICENTER":171.5443,"MEAN_ANOMALY":188.5315,"EPHEMERIS_TYPE":0,"CLASSIFICATION_TYPE":"U","NORAD_CAT_ID":59395,"ELEMENT_SET_NO":999,"REV_AT_EPOCH":10771,"BSTAR":0.00052016126,"MEAN_MOTION_DOT":0.00012558,"MEAN_MOTION_DDOT":0},{"OBJECT_NAME":"OBJECT B","OBJECT_ID":"2025-197B","EPOCH":"2026-03-09T22:54:10.410624","MEAN_MOTION":15.22275825,"ECCENTRICITY":0.00134905,"INCLINATION":97.4108,"RA_OF_ASC_NODE":256.8193,"ARG_OF_PERICENTER":3.3415,"MEAN_ANOMALY":356.7909,"EPHEMERIS_TYPE":0,"CLASSIFICATION_TYPE":"U","NORAD_CAT_ID":65489,"ELEMENT_SET_NO":999,"REV_AT_EPOCH":2819,"BSTAR":0.0002890926,"MEAN_MOTION_DOT":6.601e-5,"MEAN_MOTION_DDOT":0}]
